OBJECT_NAME,OBJECT_ID,EPOCH,MEAN_MOTION,ECCENTRICITY,INCLINATION,RA_OF_ASC_NODE,ARG_OF_PERICENTER,MEAN_ANOMALY,EPHEMERIS_TYPE,CLASSIFICATION_TYPE,NORAD_CAT_ID,ELEMENT_SET_NO,REV_AT_EPOCH,BSTAR,MEAN_MOTION_DOT,MEAN_MOTION_DDOT
GPS BIIR-2  (PRN 13),1997-035A,2024-07-07T05:17:47.588352,2.00565617,.0080866,55.6762,126.3494,52.4854,308.2153,0,U,24876,999,19771,0,-.17E-6,0
GPS BIIR-4  (PRN 20),2000-025A,2024-07-07T14:44:29.056416,2.00577406,.0038044,54.6830,48.0485,214.7628,154.4560,0,U,26360,999,17704,0,-.77E-6,0
GPS BIIR-5  (PRN 22),2000-040A,2024-07-07T10:15:10.175904,2.00560616,.0144634,55.0583,243.3792,294.7403,141.9869,0,U,26407,999,17571,0,.22E-6,0
GPS BIIR-8  (PRN 16),2003-005A,2024-07-07T03:30:28.943712,2.00573724,.0136368,55.0972,243.2015,47.4080,323.1818,0,U,27663,999,15707,0,.25E-6,0
GPS BIIR-9  (PRN 21),2003-010A,2024-07-07T07:49:54.947424,2.00563797,.0253214,55.0957,352.9781,328.0823,30.3349,0,U,27704,999,15586,0,-.108E-5,0
GPS BIIR-11 (PRN 19),2004-009A,2024-07-07T12:00:12.584160,2.00558792,.0098338,55.4363,304.2292,149.2664,275.1084,0,U,28190,999,14871,0,-.72E-6,0
GPS BIIR-13 (PRN 02),2004-045A,2024-07-08T02:15:10.488096,2.00561498,.0161847,55.4241,353.3733,292.9697,245.6258,0,U,28474,999,14419,0,-.106E-5,0
CRE (WAAS/PRN 138),2005-036A,2024-07-07T16:07:16.360032,1.00271800,.0003445,2.4842,85.4113,19.5817,315.6176,0,U,28868,999,6904,0,-.79E-6,0
GPS BIIRM-1 (PRN 17),2005-038A,2024-07-07T10:22:37.840224,2.00554076,.0136374,55.4822,301.6941,284.2483,114.9174,0,U,28874,999,13760,0,-.69E-6,0
IOR-W (EGNOS/PRN 126),2005-044A,2024-07-07T12:09:50.603616,1.00271915,.0001634,4.2108,42.5342,73.8585,135.5013,0,U,28899,999,6840,0,-.266E-5,0
GPS BIIRM-2 (PRN 31),2006-042A,2024-07-07T06:14:49.144128,2.00554636,.0103519,54.6797,179.4912,38.5601,137.0278,0,U,29486,999,13015,0,.3E-6,0
GPS BIIRM-3 (PRN 12),2006-052A,2024-07-06T22:38:03.625728,2.00568958,.0084583,55.1280,242.1886,83.3001,277.7488,0,U,29601,999,12916,0,.28E-6,0
GPS BIIRM-4 (PRN 15),2007-047A,2024-07-07T05:53:05.089920,2.00563007,.0156069,53.6165,109.4192,75.7147,286.0068,0,U,32260,999,12257,0,-.33E-6,0
COSMOS 2433 (720),2007-052A,2024-07-07T09:31:43.345344,2.13104188,.000221,65.9285,339.7134,199.8746,160.1083,0,U,32275,999,12993,0,-.82E-6,0
COSMOS 2432 (719),2007-052B,2024-07-06T23:59:21.471648,2.13103286,.000801,65.9435,339.8409,332.3639,28.8762,0,U,32276,999,12995,0,-.83E-6,0
GPS BIIRM-5 (PRN 29),2007-062A,2024-07-07T19:18:28.837152,2.00576066,.0028881,55.6219,302.5446,153.1075,19.8245,0,U,32384,999,12134,0,-.7E-6,0
COSMOS 2434 (721),2007-065A,2024-07-06T21:47:40.178688,2.13103213,.0000193,64.3204,215.9061,277.5958,319.6247,0,U,32393,999,12866,0,.59E-6,0
COSMOS 2436 (723),2007-065C,2024-07-07T09:46:01.038144,2.13102930,.0015991,64.3290,215.9540,352.1652,42.9339,0,U,32395,999,12860,0,.54E-6,0
GPS BIIRM-6 (PRN 07),2008-012A,2024-07-08T03:52:02.976384,2.00568780,.0188598,54.4528,178.2134,239.3788,118.7312,0,U,32711,999,11953,0,.32E-6,0
GPS BIIRM-8 (PRN 05),2009-043A,2024-07-07T10:01:15.253824,2.00568051,.0057139,55.6899,55.4783,72.7867,126.0817,0,U,35752,999,10912,0,-.69E-6,0
COSMOS 2456 (730),2009-070A,2024-07-07T12:02:03.635808,2.13099208,.00041,64.6205,95.2598,323.8143,162.9868,0,U,36111,999,11330,0,-.21E-6,0
COSMOS 2457 (733),2009-070B,2024-07-08T04:13:57.105696,2.13101397,.0003554,64.6052,95.0947,151.3756,266.4099,0,U,36112,999,11336,0,-.17E-6,0
COSMOS 2460 (732),2010-007C,2024-07-05T00:26:34.420416,2.13106294,.0001848,65.7854,338.4553,105.8371,41.4463,0,U,36402,999,11155,0,-.86E-6,0
GPS BIIF-1  (PRN 25),2010-022A,2024-07-07T12:59:03.431616,2.00552423,.0114039,54.4389,237.1780,61.9655,346.3602,0,U,36585,999,10336,0,.26E-6,0
BEIDOU-2 IGSO-1 (C06),2010-036A,2024-07-06T13:23:36.907584,1.00277052,.0041918,54.2566,169.3880,207.4028,217.1016,0,U,36828,999,5108,0,-.1E-5,0
BEIDOU-2 G4 (C04),2010-057A,2024-07-07T19:06:50.423616,1.00270645,.0004171,1.8936,69.0848,156.4613,147.3886,0,U,37210,999,5017,0,-.117E-5,0
BEIDOU-2 IGSO-2 (C07),2010-068A,2024-06-25T00:46:09.695424,1.00247372,.003623,48.8639,280.7291,210.2706,258.3565,0,U,37256,999,4955,0,-.185E-5,0
BEIDOU-2 IGSO-3 (C08),2011-013A,2024-07-07T10:13:43.780224,1.00253943,.0027047,61.3801,46.9138,173.7106,323.8883,0,U,37384,999,4854,0,-.173E-5,0
GSAT-8 (GAGAN/PRN 127),2011-022A,2024-07-07T20:19:49.537632,1.00273339,.0002823,0.2919,91.2671,166.7880,28.2577,0,U,37605,999,4812,0,.81E-6,0
BEIDOU-2 IGSO-4 (C09),2011-038A,2024-07-07T10:12:38.042784,1.00255598,.0126248,54.5619,171.9936,229.1537,131.1226,0,U,37763,999,4753,0,-.22E-6,0
GSAT0101 (PRN E11),2011-060A,2024-07-06T11:51:18.073152,1.70475955,.000317,57.1296,1.0112,56.3380,303.6973,0,U,37846,999,7900,0,-.101E-5,0
